ONEWEB-0697             
1 61603U 24188K   25338.28643485  .00000393  00000+0  10719-2 0  9994
2 61603  87.8860  59.8846 0001658  75.7899 284.3413 13.11421215 58908
ONEWEB-0698             
1 61604U 24188L   25338.26439068 -.00000448  00000+0 -13004-2 0  9996
2 61604  87.8859  59.9045 0002433  79.5585 280.5817 13.11417059 58924
ONEWEB-0699             
1 61605U 24188M   25338.27482225  .00000476  00000+0  13273-2 0  9998
2 61605  87.8815  75.1152 0001656  80.1187 280.0127 13.10369770 57785
ONEWEB-0700             
1 61606U 24188N   25338.27647921  .00000434  00000+0  12057-2 0  9998
2 61606  87.8823  74.9999 0001031  83.8880 276.2365 13.10370465 57771
ONEWEB-0701             
1 61607U 24188P   25338.29306735 -.00000408  00000+0 -12045-2 0  9996
2 61607  87.8813  75.1130 0001609  73.6226 286.5078 13.10370829 57783
ONEWEB-0702             
1 61608U 24188Q   25338.23390484  .00000438  00000+0  11990-2 0  9994
2 61608  87.8818  59.7993 0001359  63.4897 296.6370 13.11419742 58931
ONEWEB-0704             
1 61609U 24188R   25338.28145805  .00000171  00000+0  45300-3 0  9992
2 61609  87.8824  75.0791 0001187  67.3678 292.7575 13.10370221 57766
ONEWEB-0705             
1 61610U 24188S   25338.28643228 -.00000080  00000+0 -26439-3 0  9999
2 61610  87.8813  75.1009 0000540 125.5644 234.5534 13.10371078 49931
