<?xml version="1.0" encoding="UTF-8"?>
<ndm xmlns:xsi="http://www.w3.org/2001/XMLSchema-instance" xsi:noNamespaceSchemaLocation="https://sanaregistry.org/r/ndmxml_unqualified/ndmxml-2.0.0-master-2.0.xsd">
<omm id="CCSDS_OMM_VERS" version="2.0">
<header><CREATION_DATE/><ORIGINATOR/></header><body><segment><metadata><OBJECT_NAME>ONEWEB-0697</OBJECT_NAME><OBJECT_ID>2024-188K</OBJECT_ID><CENTER_NAME>EARTH</CENTER_NAME><REF_FRAME>TEME</REF_FRAME><TIME_SYSTEM>UTC</TIME_SYSTEM><MEAN_ELEMENT_THEORY>SGP4</MEAN_ELEMENT_THEORY></metadata><data><meanElements><EPOCH>2025-12-04T06:52:27.971040</EPOCH><MEAN_MOTION>13.11421215</MEAN_MOTION><ECCENTRICITY>.00016581</ECCENTRICITY><INCLINATION>87.8860</INCLINATION><RA_OF_ASC_NODE>59.8846</RA_OF_ASC_NODE><ARG_OF_PERICENTER>75.7899</ARG_OF_PERICENTER><MEAN_ANOMALY>284.3413</MEAN_ANOMALY></meanElements><tleParameters><EPHEMERIS_TYPE>0</EPHEMERIS_TYPE><CLASSIFICATION_TYPE>U</CLASSIFICATION_TYPE><NORAD_CAT_ID>61603</NORAD_CAT_ID><ELEMENT_SET_NO>999</ELEMENT_SET_NO><REV_AT_EPOCH>5890</REV_AT_EPOCH><BSTAR>.10719159E-2</BSTAR><MEAN_MOTION_DOT>.393E-5</MEAN_MOTION_DOT><MEAN_MOTION_DDOT>0</MEAN_MOTION_DDOT></tleParameters></data></segment></body></omm>
<omm id="CCSDS_OMM_VERS" version="2.0">
<header><CREATION_DATE/><ORIGINATOR/></header><body><segment><metadata><OBJECT_NAME>ONEWEB-0698</OBJECT_NAME><OBJECT_ID>2024-188L</OBJECT_ID><CENTER_NAME>EARTH</CENTER_NAME><REF_FRAME>TEME</REF_FRAME><TIME_SYSTEM>UTC</TIME_SYSTEM><MEAN_ELEMENT_THEORY>SGP4</MEAN_ELEMENT_THEORY></metadata><data><meanElements><EPOCH>2025-12-04T06:20:43.354752</EPOCH><MEAN_MOTION>13.11417059</MEAN_MOTION><ECCENTRICITY>.00024339</ECCENTRICITY><INCLINATION>87.8859</INCLINATION><RA_OF_ASC_NODE>59.9045</RA_OF_ASC_NODE><ARG_OF_PERICENTER>79.5585</ARG_OF_PERICENTER><MEAN_ANOMALY>280.5817</MEAN_ANOMALY></meanElements><tleParameters><EPHEMERIS_TYPE>0</EPHEMERIS_TYPE><CLASSIFICATION_TYPE>U</CLASSIFICATION_TYPE><NORAD_CAT_ID>61604</NORAD_CAT_ID><ELEMENT_SET_NO>999</ELEMENT_SET_NO><REV_AT_EPOCH>5892</REV_AT_EPOCH><BSTAR>-.13003816E-2</BSTAR><MEAN_MOTION_DOT>-.448E-5</MEAN_MOTION_DOT><MEAN_MOTION_DDOT>0</MEAN_MOTION_DDOT></tleParameters></data></segment></body></omm>
<omm id="CCSDS_OMM_VERS" version="2.0">
<header><CREATION_DATE/><ORIGINATOR/></header><body><segment><metadata><OBJECT_NAME>ONEWEB-0699</OBJECT_NAME><OBJECT_ID>2024-188M</OBJECT_ID><CENTER_NAME>EARTH</CENTER_NAME><REF_FRAME>TEME</REF_FRAME><TIME_SYSTEM>UTC</TIME_SYSTEM><MEAN_ELEMENT_THEORY>SGP4</MEAN_ELEMENT_THEORY></metadata><data><meanElements><EPOCH>2025-12-04T06:35:44.642400</EPOCH><MEAN_MOTION>13.10369770</MEAN_MOTION><ECCENTRICITY>.00016562</ECCENTRICITY><INCLINATION>87.8815</INCLINATION><RA_OF_ASC_NODE>75.1152</RA_OF_ASC_NODE><ARG_OF_PERICENTER>80.1187</ARG_OF_PERICENTER><MEAN_ANOMALY>280.0127</MEAN_ANOMALY></meanElements><tleParameters><EPHEMERIS_TYPE>0</EPHEMERIS_TYPE><CLASSIFICATION_TYPE>U</CLASSIFICATION_TYPE><NORAD_CAT_ID>61605</NORAD_CAT_ID><ELEMENT_SET_NO>999</ELEMENT_SET_NO><REV_AT_EPOCH>5778</REV_AT_EPOCH><BSTAR>.13273488E-2</BSTAR><MEAN_MOTION_DOT>.476E-5</MEAN_MOTION_DOT><MEAN_MOTION_DDOT>0</MEAN_MOTION_DDOT></tleParameters></data></segment></body></omm>
<omm id="CCSDS_OMM_VERS" version="2.0">
<header><CREATION_DATE/><ORIGINATOR/></header><body><segment><metadata><OBJECT_NAME>ONEWEB-0700</OBJECT_NAME><OBJECT_ID>2024-188N</OBJECT_ID><CENTER_NAME>EARTH</CENTER_NAME><REF_FRAME>TEME</REF_FRAME><TIME_SYSTEM>UTC</TIME_SYSTEM><MEAN_ELEMENT_THEORY>SGP4</MEAN_ELEMENT_THEORY></metadata><data><meanElements><EPOCH>2025-12-04T06:38:07.803744</EPOCH><MEAN_MOTION>13.10370465</MEAN_MOTION><ECCENTRICITY>.00010319</ECCENTRICITY><INCLINATION>87.8823</INCLINATION><RA_OF_ASC_NODE>74.9999</RA_OF_ASC_NODE><ARG_OF_PERICENTER>83.8880</ARG_OF_PERICENTER><MEAN_ANOMALY>276.2365</MEAN_ANOMALY></meanElements><tleParameters><EPHEMERIS_TYPE>0</EPHEMERIS_TYPE><CLASSIFICATION_TYPE>U</CLASSIFICATION_TYPE><NORAD_CAT_ID>61606</NORAD_CAT_ID><ELEMENT_SET_NO>999</ELEMENT_SET_NO><REV_AT_EPOCH>5777</REV_AT_EPOCH><BSTAR>.12056985E-2</BSTAR><MEAN_MOTION_DOT>.434E-5</MEAN_MOTION_DOT><MEAN_MOTION_DDOT>0</MEAN_MOTION_DDOT></tleParameters></data></segment></body></omm>
<omm id="CCSDS_OMM_VERS" version="2.0">
<header><CREATION_DATE/><ORIGINATOR/></header><body><segment><metadata><OBJECT_NAME>ONEWEB-0701</OBJECT_NAME><OBJECT_ID>2024-188P</OBJECT_ID><CENTER_NAME>EARTH</CENTER_NAME><REF_FRAME>TEME</REF_FRAME><TIME_SYSTEM>UTC</TIME_SYSTEM><MEAN_ELEMENT_THEORY>SGP4</MEAN_ELEMENT_THEORY></metadata><data><meanElements><EPOCH>2025-12-04T07:02:01.019040</EPOCH><MEAN_MOTION>13.10370829</MEAN_MOTION><ECCENTRICITY>.00016093</ECCENTRICITY><INCLINATION>87.8813</INCLINATION><RA_OF_ASC_NODE>75.1130</RA_OF_ASC_NODE><ARG_OF_PERICENTER>73.6226</ARG_OF_PERICENTER><MEAN_ANOMALY>286.5078</MEAN_ANOMALY></meanElements><tleParameters><EPHEMERIS_TYPE>0</EPHEMERIS_TYPE><CLASSIFICATION_TYPE>U</CLASSIFICATION_TYPE><NORAD_CAT_ID>61607</NORAD_CAT_ID><ELEMENT_SET_NO>999</ELEMENT_SET_NO><REV_AT_EPOCH>5778</REV_AT_EPOCH><BSTAR>-.12045332E-2</BSTAR><MEAN_MOTION_DOT>-.408E-5</MEAN_MOTION_DOT><MEAN_MOTION_DDOT>0</MEAN_MOTION_DDOT></tleParameters></data></segment></body></omm>
<omm id="CCSDS_OMM_VERS" version="2.0">
<header><CREATION_DATE/><ORIGINATOR/></header><body><segment><metadata><OBJECT_NAME>ONEWEB-0702</OBJECT_NAME><OBJECT_ID>2024-188Q</OBJECT_ID><CENTER_NAME>EARTH</CENTER_NAME><REF_FRAME>TEME</REF_FRAME><TIME_SYSTEM>UTC</TIME_SYSTEM><MEAN_ELEMENT_THEORY>SGP4</MEAN_ELEMENT_THEORY></metadata><data><meanElements><EPOCH>2025-12-04T05:36:49.378176</EPOCH><MEAN_MOTION>13.11419742</MEAN_MOTION><ECCENTRICITY>.00013598</ECCENTRICITY><INCLINATION>87.8818</INCLINATION><RA_OF_ASC_NODE>59.7993</RA_OF_ASC_NODE><ARG_OF_PERICENTER>63.4897</ARG_OF_PERICENTER><MEAN_ANOMALY>296.6370</MEAN_ANOMALY></meanElements><tleParameters><EPHEMERIS_TYPE>0</EPHEMERIS_TYPE><CLASSIFICATION_TYPE>U</CLASSIFICATION_TYPE><NORAD_CAT_ID>61608</NORAD_CAT_ID><ELEMENT_SET_NO>999</ELEMENT_SET_NO><REV_AT_EPOCH>5893</REV_AT_EPOCH><BSTAR>.11989915E-2</BSTAR><MEAN_MOTION_DOT>.438E-5</MEAN_MOTION_DOT><MEAN_MOTION_DDOT>0</MEAN_MOTION_DDOT></tleParameters></data></segment></body></omm>
<omm id="CCSDS_OMM_VERS" version="2.0">
<header><CREATION_DATE/><ORIGINATOR/></header><body><segment><metadata><OBJECT_NAME>ONEWEB-0704</OBJECT_NAME><OBJECT_ID>2024-188R</OBJECT_ID><CENTER_NAME>EARTH</CENTER_NAME><REF_FRAME>TEME</REF_FRAME><TIME_SYSTEM>UTC</TIME_SYSTEM><MEAN_ELEMENT_THEORY>SGP4</MEAN_ELEMENT_THEORY></metadata><data><meanElements><EPOCH>2025-12-04T06:45:17.975520</EPOCH><MEAN_MOTION>13.10370221</MEAN_MOTION><ECCENTRICITY>.00011876</ECCENTRICITY><INCLINATION>87.8824</INCLINATION><RA_OF_ASC_NODE>75.0791</RA_OF_ASC_NODE><ARG_OF_PERICENTER>67.3678</ARG_OF_PERICENTER><MEAN_ANOMALY>292.7575</MEAN_ANOMALY></meanElements><tleParameters><EPHEMERIS_TYPE>0</EPHEMERIS_TYPE><CLASSIFICATION_TYPE>U</CLASSIFICATION_TYPE><NORAD_CAT_ID>61609</NORAD_CAT_ID><ELEMENT_SET_NO>999</ELEMENT_SET_NO><REV_AT_EPOCH>5776</REV_AT_EPOCH><BSTAR>.45300016E-3</BSTAR><MEAN_MOTION_DOT>.171E-5</MEAN_MOTION_DOT><MEAN_MOTION_DDOT>0</MEAN_MOTION_DDOT></tleParameters></data></segment></body></omm>
<omm id="CCSDS_OMM_VERS" version="2.0">
<header><CREATION_DATE/><ORIGINATOR/></header><body><segment><metadata><OBJECT_NAME>ONEWEB-0705</OBJECT_NAME><OBJECT_ID>2024-188S</OBJECT_ID><CENTER_NAME>EARTH</CENTER_NAME><REF_FRAME>TEME</REF_FRAME><TIME_SYSTEM>UTC</TIME_SYSTEM><MEAN_ELEMENT_THEORY>SGP4</MEAN_ELEMENT_THEORY></metadata><data><meanElements><EPOCH>2025-12-04T06:52:27.748992</EPOCH><MEAN_MOTION>13.10371078</MEAN_MOTION><ECCENTRICITY>.00005409</ECCENTRICITY><INCLINATION>87.8813</INCLINATION><RA_OF_ASC_NODE>75.1009</RA_OF_ASC_NODE><ARG_OF_PERICENTER>125.5644</ARG_OF_PERICENTER><MEAN_ANOMALY>234.5534</MEAN_ANOMALY></meanElements><tleParameters><EPHEMERIS_TYPE>0</EPHEMERIS_TYPE><CLASSIFICATION_TYPE>U</CLASSIFICATION_TYPE><NORAD_CAT_ID>61610</NORAD_CAT_ID><ELEMENT_SET_NO>999</ELEMENT_SET_NO><REV_AT_EPOCH>4993</REV_AT_EPOCH><BSTAR>-.26438808E-3</BSTAR><MEAN_MOTION_DOT>-.8E-6</MEAN_MOTION_DOT><MEAN_MOTION_DDOT>0</MEAN_MOTION_DDOT></tleParameters></data></segment></body></omm>

</ndm>
